CCSDS_OMM_VERS = 2.0
CREATION_DATE  = 
ORIGINATOR     = 

OBJECT_NAME    = ISS (ZARYA)
OBJECT_ID      = 1998-067A
CENTER_NAME    = EARTH
REF_FRAME      = TEME
TIME_SYSTEM    = UTC
MEAN_ELEMENT_THEORY = SGP/SGP4

EPOCH          = 2025-10-26T17:11:32.379072
MEAN_MOTION    = 15.49497961
ECCENTRICITY   = .00046055
INCLINATION    = 51.6344
RA_OF_ASC_NODE = 15.2829
ARG_OF_PERICENTER = 341.7148
MEAN_ANOMALY   = 18.3675

EPHEMERIS_TYPE = 0
CLASSIFICATION_TYPE = U
NORAD_CAT_ID   = 25544
ELEMENT_SET_NO = 999
REV_AT_EPOCH   = 53556
BSTAR          = .28569155E-3
MEAN_MOTION_DOT = .156E-3
MEAN_MOTION_DDOT = 0

CCSDS_OMM_VERS = 2.0
CREATION_DATE  = 
ORIGINATOR     = 

OBJECT_NAME    = CSS (TIANHE)
OBJECT_ID      = 2021-035A
CENTER_NAME    = EARTH
REF_FRAME      = TEME
TIME_SYSTEM    = UTC
MEAN_ELEMENT_THEORY = SGP/SGP4

EPOCH          = 2025-10-26T21:41:08.824704
MEAN_MOTION    = 15.60728815
ECCENTRICITY   = .00109756
INCLINATION    = 41.4668
RA_OF_ASC_NODE = 301.2205
ARG_OF_PERICENTER = 289.1292
MEAN_ANOMALY   = 70.8358

EPHEMERIS_TYPE = 0
CLASSIFICATION_TYPE = U
NORAD_CAT_ID   = 48274
ELEMENT_SET_NO = 999
REV_AT_EPOCH   = 25671
BSTAR          = .42097959E-3
MEAN_MOTION_DOT = .35929E-3
MEAN_MOTION_DDOT = 0

CCSDS_OMM_VERS = 2.0
CREATION_DATE  = 
ORIGINATOR     = 

OBJECT_NAME    = ISS (NAUKA)
OBJECT_ID      = 2021-066A
CENTER_NAME    = EARTH
REF_FRAME      = TEME
TIME_SYSTEM    = UTC
MEAN_ELEMENT_THEORY = SGP/SGP4

EPOCH          = 2025-10-26T17:11:32.379072
MEAN_MOTION    = 15.49497961
ECCENTRICITY   = .00046055
INCLINATION    = 51.6344
RA_OF_ASC_NODE = 15.2829
ARG_OF_PERICENTER = 341.7148
MEAN_ANOMALY   = 18.3675

EPHEMERIS_TYPE = 0
CLASSIFICATION_TYPE = U
NORAD_CAT_ID   = 49044
ELEMENT_SET_NO = 999
REV_AT_EPOCH   = 23044
BSTAR          = .28569155E-3
MEAN_MOTION_DOT = .156E-3
MEAN_MOTION_DDOT = 0

CCSDS_OMM_VERS = 2.0
CREATION_DATE  = 
ORIGINATOR     = 

OBJECT_NAME    = FREGAT DEB
OBJECT_ID      = 2011-037PF
CENTER_NAME    = EARTH
REF_FRAME      = TEME
TIME_SYSTEM    = UTC
MEAN_ELEMENT_THEORY = SGP/SGP4

EPOCH          = 2025-10-26T20:14:12.148224
MEAN_MOTION    = 12.33751053
ECCENTRICITY   = .08953072
INCLINATION    = 51.6281
RA_OF_ASC_NODE = 338.0964
ARG_OF_PERICENTER = 122.5744
MEAN_ANOMALY   = 246.4780

EPHEMERIS_TYPE = 0
CLASSIFICATION_TYPE = U
NORAD_CAT_ID   = 49271
ELEMENT_SET_NO = 999
REV_AT_EPOCH   = 19614
BSTAR          = -.98767795E-3
MEAN_MOTION_DOT = -.587E-5
MEAN_MOTION_DDOT = 0

CCSDS_OMM_VERS = 2.0
CREATION_DATE  = 
ORIGINATOR     = 

OBJECT_NAME    = CSS (WENTIAN)
OBJECT_ID      = 2022-085A
CENTER_NAME    = EARTH
REF_FRAME      = TEME
TIME_SYSTEM    = UTC
MEAN_ELEMENT_THEORY = SGP/SGP4

EPOCH          = 2025-10-26T21:41:08.824704
MEAN_MOTION    = 15.60728815
ECCENTRICITY   = .00109756
INCLINATION    = 41.4668
RA_OF_ASC_NODE = 301.2205
ARG_OF_PERICENTER = 289.1292
MEAN_ANOMALY   = 70.8358

EPHEMERIS_TYPE = 0
CLASSIFICATION_TYPE = U
NORAD_CAT_ID   = 53239
ELEMENT_SET_NO = 999
REV_AT_EPOCH   = 17384
BSTAR          = .42097959E-3
MEAN_MOTION_DOT = .35929E-3
MEAN_MOTION_DDOT = 0

CCSDS_OMM_VERS = 2.0
CREATION_DATE  = 
ORIGINATOR     = 

OBJECT_NAME    = CSS (MENGTIAN)
OBJECT_ID      = 2022-143A
CENTER_NAME    = EARTH
REF_FRAME      = TEME
TIME_SYSTEM    = UTC
MEAN_ELEMENT_THEORY = SGP/SGP4

EPOCH          = 2025-10-26T21:41:08.824704
MEAN_MOTION    = 15.60728815
ECCENTRICITY   = .00109756
INCLINATION    = 41.4668
RA_OF_ASC_NODE = 301.2205
ARG_OF_PERICENTER = 289.1292
MEAN_ANOMALY   = 70.8358

EPHEMERIS_TYPE = 0
CLASSIFICATION_TYPE = U
NORAD_CAT_ID   = 54216
ELEMENT_SET_NO = 999
REV_AT_EPOCH   = 15864
BSTAR          = .42097959E-3
MEAN_MOTION_DOT = .35929E-3
MEAN_MOTION_DDOT = 0

CCSDS_OMM_VERS = 2.0
CREATION_DATE  = 
ORIGINATOR     = 

OBJECT_NAME    = SOYUZ-MS 27
OBJECT_ID      = 2025-072A
CENTER_NAME    = EARTH
REF_FRAME      = TEME
TIME_SYSTEM    = UTC
MEAN_ELEMENT_THEORY = SGP/SGP4

EPOCH          = 2025-10-26T17:11:32.379072
MEAN_MOTION    = 15.49497961
ECCENTRICITY   = .00046055
INCLINATION    = 51.6344
RA_OF_ASC_NODE = 15.2829
ARG_OF_PERICENTER = 341.7148
MEAN_ANOMALY   = 18.3675

EPHEMERIS_TYPE = 0
CLASSIFICATION_TYPE = U
NORAD_CAT_ID   = 63520
ELEMENT_SET_NO = 999
REV_AT_EPOCH   = 2020
BSTAR          = .28569155E-3
MEAN_MOTION_DOT = .156E-3
MEAN_MOTION_DDOT = 0

CCSDS_OMM_VERS = 2.0
CREATION_DATE  = 
ORIGINATOR     = 

OBJECT_NAME    = SHENZHOU-20 (SZ-20)
OBJECT_ID      = 2025-082A
CENTER_NAME    = EARTH
REF_FRAME      = TEME
TIME_SYSTEM    = UTC
MEAN_ELEMENT_THEORY = SGP/SGP4

EPOCH          = 2025-10-26T21:41:08.824704
MEAN_MOTION    = 15.60728815
ECCENTRICITY   = .00109756
INCLINATION    = 41.4668
RA_OF_ASC_NODE = 301.2205
ARG_OF_PERICENTER = 289.1292
MEAN_ANOMALY   = 70.8358

EPHEMERIS_TYPE = 0
CLASSIFICATION_TYPE = U
NORAD_CAT_ID   = 63632
ELEMENT_SET_NO = 999
REV_AT_EPOCH   = 25530
BSTAR          = .42097959E-3
MEAN_MOTION_DOT = .35929E-3
MEAN_MOTION_DDOT = 0

CCSDS_OMM_VERS = 2.0
CREATION_DATE  = 
ORIGINATOR     = 

OBJECT_NAME    = PROGRESS-MS 31
OBJECT_ID      = 2025-146A
CENTER_NAME    = EARTH
REF_FRAME      = TEME
TIME_SYSTEM    = UTC
MEAN_ELEMENT_THEORY = SGP/SGP4

EPOCH          = 2025-10-26T17:11:32.379072
MEAN_MOTION    = 15.49497961
ECCENTRICITY   = .00046055
INCLINATION    = 51.6344
RA_OF_ASC_NODE = 15.2829
ARG_OF_PERICENTER = 341.7148
MEAN_ANOMALY   = 18.3675

EPHEMERIS_TYPE = 0
CLASSIFICATION_TYPE = U
NORAD_CAT_ID   = 64751
ELEMENT_SET_NO = 999
REV_AT_EPOCH   = 675
BSTAR          = .28569155E-3
MEAN_MOTION_DOT = .156E-3
MEAN_MOTION_DDOT = 0

CCSDS_OMM_VERS = 2.0
CREATION_DATE  = 
ORIGINATOR     = 

OBJECT_NAME    = TIANZHOU-9
OBJECT_ID      = 2025-149A
CENTER_NAME    = EARTH
REF_FRAME      = TEME
TIME_SYSTEM    = UTC
MEAN_ELEMENT_THEORY = SGP/SGP4

EPOCH          = 2025-10-26T21:41:08.824704
MEAN_MOTION    = 15.60728815
ECCENTRICITY   = .00109756
INCLINATION    = 41.4668
RA_OF_ASC_NODE = 301.2205
ARG_OF_PERICENTER = 289.1292
MEAN_ANOMALY   = 70.8358

EPHEMERIS_TYPE = 0
CLASSIFICATION_TYPE = U
NORAD_CAT_ID   = 64786
ELEMENT_SET_NO = 999
REV_AT_EPOCH   = 25530
BSTAR          = .42097959E-3
MEAN_MOTION_DOT = .35929E-3
MEAN_MOTION_DDOT = 0

CCSDS_OMM_VERS = 2.0
CREATION_DATE  = 
ORIGINATOR     = 

OBJECT_NAME    = CREW DRAGON 11
OBJECT_ID      = 2025-166A
CENTER_NAME    = EARTH
REF_FRAME      = TEME
TIME_SYSTEM    = UTC
MEAN_ELEMENT_THEORY = SGP/SGP4

EPOCH          = 2025-10-26T17:11:32.379072
MEAN_MOTION    = 15.49497961
ECCENTRICITY   = .00046055
INCLINATION    = 51.6344
RA_OF_ASC_NODE = 15.2829
ARG_OF_PERICENTER = 341.7148
MEAN_ANOMALY   = 18.3675

EPHEMERIS_TYPE = 0
CLASSIFICATION_TYPE = U
NORAD_CAT_ID   = 65077
ELEMENT_SET_NO = 999
REV_AT_EPOCH   = 214
BSTAR          = .28569155E-3
MEAN_MOTION_DOT = .156E-3
MEAN_MOTION_DDOT = 0

CCSDS_OMM_VERS = 2.0
CREATION_DATE  = 
ORIGINATOR     = 

OBJECT_NAME    = DRAGON CRS-33
OBJECT_ID      = 2025-186A
CENTER_NAME    = EARTH
REF_FRAME      = TEME
TIME_SYSTEM    = UTC
MEAN_ELEMENT_THEORY = SGP/SGP4

EPOCH          = 2025-10-26T17:11:32.379072
MEAN_MOTION    = 15.49497961
ECCENTRICITY   = .00046055
INCLINATION    = 51.6344
RA_OF_ASC_NODE = 15.2829
ARG_OF_PERICENTER = 341.7148
MEAN_ANOMALY   = 18.3675

EPHEMERIS_TYPE = 0
CLASSIFICATION_TYPE = U
NORAD_CAT_ID   = 65304
ELEMENT_SET_NO = 999
REV_AT_EPOCH   = 11
BSTAR          = .28569155E-3
MEAN_MOTION_DOT = .156E-3
MEAN_MOTION_DDOT = 0

